{
  "type": "FeatureCollection",
  "features": [
    {
      "type": "Feature",
      "properties": {
        "norad_id": 64694,
        "name": "GOSAT-GW (IBUKI GW)",
        "group": "resource",
        "lat": 49.32451644287133,
        "lon": 126.51952231039681,
        "alt_km": 663.7248422774064,
        "timestamp": "2025-12-27T19:21:58.432558+00:00",
        "meta_object_name": "GOSAT-GW (IBUKI GW)",
        "meta_object_id": "2025-141A",
        "meta_epoch": "2025-12-27T12:13:51.210336",
        "meta_mean_motion": 14.67558235,
        "meta_eccentricity": 0.0001445,
        "meta_inclination": 98.0442,
        "meta_ra_of_asc_node": 296.7559,
        "meta_arg_of_pericenter": 82.6581,
        "meta_mean_anomaly": 277.4787,
        "meta_ephemeris_type": 0,
        "meta_classification_type": "U",
        "meta_norad_cat_id": 64694,
        "meta_element_set_no": 999,
        "meta_rev_at_epoch": 2666,
        "meta_bstar": 0.00021965,
        "meta_mean_motion_dot": 1.198e-05,
        "meta_mean_motion_ddot": 0,
        "tle_line1": "1 64694U 25141A   25361.50962049  .00001198  00000+0  21965-3 0  9998",
        "tle_line2": "2 64694  98.0442 296.7559 0001445  82.6581 277.4787 14.67558235 26663"
      },
      "geometry": {
        "type": "Point",
        "coordinates": [
          126.51952231039681,
          49.32451644287133
        ]
      }
    },
    {
      "type": "Feature",
      "properties": {
        "norad_id": 64876,
        "name": "IONOSFERA-M 3",
        "group": "resource",
        "lat": 24.69842136499959,
        "lon": 147.22975279920988,
        "alt_km": 820.3596126702951,
        "timestamp": "2025-12-27T19:21:58.432567+00:00",
        "meta_object_name": "IONOSFERA-M 3",
        "meta_object_id": "2025-155A",
        "meta_epoch": "2025-12-27T11:52:56.987328",
        "meta_mean_motion": 14.2144471,
        "meta_eccentricity": 0.0001745,
        "meta_inclination": 98.5803,
        "meta_ra_of_asc_node": 322.945,
        "meta_arg_of_pericenter": 35.84,
        "meta_mean_anomaly": 324.2895,
        "meta_ephemeris_type": 0,
        "meta_classification_type": "U",
        "meta_norad_cat_id": 64876,
        "meta_element_set_no": 999,
        "meta_rev_at_epoch": 2201,
        "meta_bstar": 7.032e-05,
        "meta_mean_motion_dot": 1.11e-06,
        "meta_mean_motion_ddot": 0,
        "tle_line1": "1 64876U 25155A   25361.49510402  .00000111  00000+0  70320-4 0  9999",
        "tle_line2": "2 64876  98.5803 322.9450 0001745  35.8400 324.2895 14.21444710 22014"
      },
      "geometry": {
        "type": "Point",
        "coordinates": [
          147.22975279920988,
          24.69842136499959
        ]
      }
    },
    {
      "type": "Feature",
      "properties": {
        "norad_id": 64877,
        "name": "IONOSFERA-M 4",
        "group": "resource",
        "lat": -24.23074292481326,
        "lon": -32.93634344510245,
        "alt_km": 825.7009162073518,
        "timestamp": "2025-12-27T19:21:58.432576+00:00",
        "meta_object_name": "IONOSFERA-M 4",
        "meta_object_id": "2025-155B",
        "meta_epoch": "2025-12-27T12:43:25.733280",
        "meta_mean_motion": 14.21445902,
        "meta_eccentricity": 0.000121,
        "meta_inclination": 98.5803,
        "meta_ra_of_asc_node": 322.8984,
        "meta_arg_of_pericenter": 50.2005,
        "meta_mean_anomaly": 309.9279,
        "meta_ephemeris_type": 0,
        "meta_classification_type": "U",
        "meta_norad_cat_id": 64877,
        "meta_element_set_no": 999,
        "meta_rev_at_epoch": 2201,
        "meta_bstar": 6.9421e-05,
        "meta_mean_motion_dot": 1.09e-06,
        "meta_mean_motion_ddot": 0,
        "tle_line1": "1 64877U 25155B   25361.53015895  .00000109  00000+0  69421-4 0  9998",
        "tle_line2": "2 64877  98.5803 322.8984 0001210  50.2005 309.9279 14.21445902 22015"
      },
      "geometry": {
        "type": "Point",
        "coordinates": [
          -32.93634344510245,
          -24.23074292481326
        ]
      }
    },
    {
      "type": "Feature",
      "properties": {
        "norad_id": 64899,
        "name": "MICROCARB",
        "group": "resource",
        "lat": -8.518464137172952,
        "lon": 78.11681341696182,
        "alt_km": 662.3091525523205,
        "timestamp": "2025-12-27T19:21:58.432585+00:00",
        "meta_object_name": "MICROCARB",
        "meta_object_id": "2025-156A",
        "meta_epoch": "2025-12-27T04:43:23.827584",
        "meta_mean_motion": 14.72080893,
        "meta_eccentricity": 0.00176712,
        "meta_inclination": 98.0009,
        "meta_ra_of_asc_node": 76.3095,
        "meta_arg_of_pericenter": 101.5211,
        "meta_mean_anomaly": 258.7982,
        "meta_ephemeris_type": 0,
        "meta_classification_type": "U",
        "meta_norad_cat_id": 64899,
        "meta_element_set_no": 999,
        "meta_rev_at_epoch": 2266,
        "meta_bstar": 0.00014485368,
        "meta_mean_motion_dot": 8.63e-06,
        "meta_mean_motion_ddot": 0,
        "tle_line1": "1 64899U 25156A   25361.19680356  .00000863  00000+0  14485-3 0  9991",
        "tle_line2": "2 64899  98.0009  76.3095 0017671 101.5211 258.7982 14.72080893 22666"
      },
      "geometry": {
        "type": "Point",
        "coordinates": [
          78.11681341696182,
          -8.518464137172952
        ]
      }
    },
    {
      "type": "Feature",
      "properties": {
        "norad_id": 64900,
        "name": "CO3D 3",
        "group": "resource",
        "lat": 59.58252405831914,
        "lon": -89.19220028414875,
        "alt_km": 498.9581279540271,
        "timestamp": "2025-12-27T19:21:58.432594+00:00",
        "meta_object_name": "CO3D 3",
        "meta_object_id": "2025-156B",
        "meta_epoch": "2025-12-27T12:31:24.282912",
        "meta_mean_motion": 15.20198828,
        "meta_eccentricity": 0.0001347,
        "meta_inclination": 97.4339,
        "meta_ra_of_asc_node": 77.677,
        "meta_arg_of_pericenter": 65.3377,
        "meta_mean_anomaly": 294.7998,
        "meta_ephemeris_type": 0,
        "meta_classification_type": "U",
        "meta_norad_cat_id": 64900,
        "meta_element_set_no": 999,
        "meta_rev_at_epoch": 2345,
        "meta_bstar": 0.00042195,
        "meta_mean_motion_dot": 9.077e-05,
        "meta_mean_motion_ddot": 0,
        "tle_line1": "1 64900U 25156B   25361.52180883  .00009077  00000+0  42195-3 0  9996",
        "tle_line2": "2 64900  97.4339  77.6770 0001347  65.3377 294.7998 15.20198828 23452"
      },
      "geometry": {
        "type": "Point",
        "coordinates": [
          -89.19220028414875,
          59.58252405831914
        ]
      }
    },
    {
      "type": "Feature",
      "properties": {
        "norad_id": 64901,
        "name": "CO3D 4",
        "group": "resource",
        "lat": 60.41891100169806,
        "lon": -88.74407074005593,
        "alt_km": 498.4489317671723,
        "timestamp": "2025-12-27T19:21:58.432603+00:00",
        "meta_object_name": "CO3D 4",
        "meta_object_id": "2025-156C",
        "meta_epoch": "2025-12-27T12:31:37.762176",
        "meta_mean_motion": 15.20213189,
        "meta_eccentricity": 0.0001479,
        "meta_inclination": 97.4337,
        "meta_ra_of_asc_node": 77.6771,
        "meta_arg_of_pericenter": 147.0802,
        "meta_mean_anomaly": 213.0526,
        "meta_ephemeris_type": 0,
        "meta_classification_type": "U",
        "meta_norad_cat_id": 64901,
        "meta_element_set_no": 999,
        "meta_rev_at_epoch": 2345,
        "meta_bstar": 0.0003243,
        "meta_mean_motion_dot": 6.962e-05,
        "meta_mean_motion_ddot": 0,
        "tle_line1": "1 64901U 25156C   25361.52196484  .00006962  00000+0  32430-3 0  9992",
        "tle_line2": "2 64901  97.4337  77.6771 0001479 147.0802 213.0526 15.20213189 23458"
      },
      "geometry": {
        "type": "Point",
        "coordinates": [
          -88.74407074005593,
          60.41891100169806
        ]
      }
    },
    {
      "type": "Feature",
      "properties": {
        "norad_id": 64902,
        "name": "CO3D 2",
        "group": "resource",
        "lat": -58.24173432900401,
        "lon": 90.03410574743367,
        "alt_km": 512.5730017035266,
        "timestamp": "2025-12-27T19:21:58.432612+00:00",
        "meta_object_name": "CO3D 2",
        "meta_object_id": "2025-156D",
        "meta_epoch": "2025-12-27T11:43:36.590880",
        "meta_mean_motion": 15.20204292,
        "meta_eccentricity": 7.88e-05,
        "meta_inclination": 97.434,
        "meta_ra_of_asc_node": 77.5433,
        "meta_arg_of_pericenter": 57.3354,
        "meta_mean_anomaly": 302.7957,
        "meta_ephemeris_type": 0,
        "meta_classification_type": "U",
        "meta_norad_cat_id": 64902,
        "meta_element_set_no": 999,
        "meta_rev_at_epoch": 2344,
        "meta_bstar": 0.00065115,
        "meta_mean_motion_dot": 0.00014056,
        "meta_mean_motion_ddot": 0,
        "tle_line1": "1 64902U 25156D   25361.48861795  .00014056  00000+0  65115-3 0  9991",
        "tle_line2": "2 64902  97.4340  77.5433 0000788  57.3354 302.7957 15.20204292 23442"
      },
      "geometry": {
        "type": "Point",
        "coordinates": [
          90.03410574743367,
          -58.24173432900401
        ]
      }
    }
  ]
}